{"type": "FeatureCollection", "features": [ {"type": "Feature", "properties": {"norad_id": 66985, "name": "STARLINK-36103", "group": "last-30-days", "lat": 7.445400828775444, "lon": 131.4642212431414, "alt_km": 322.91363139041005, "timestamp": "2025-12-19T20:42:58.815465+00:00", "meta": {"OBJECT_NAME": "STARLINK-36103", "OBJECT_ID": "2025-288AC", "EPOCH": "2025-12-19T00:00:02.000160", "MEAN_MOTION": 15.85033678, "ECCENTRICITY": 0.00015426, "INCLINATION": 43.0016, "RA_OF_ASC_NODE": 128.7065, "ARG_OF_PERICENTER": 281.5776, "MEAN_ANOMALY": 202.6319, "EPHEMERIS_TYPE": 0, "CLASSIFICATION_TYPE": "U", "NORAD_CAT_ID": 66985, "ELEMENT_SET_NO": 999, "REV_AT_EPOCH": 283, "BSTAR": -0.0073033924, "MEAN_MOTION_DOT": -0.01560578, "MEAN_MOTION_DDOT": 0}, "tle": {"line1": "1 66985U 25288AC  25353.00002315 -.01560578  00000+0 -73034-2 0  9990", "line2": "2 66985  43.0016 128.7065 0001542 281.5776 202.6319 15.85033678  2839"}}, "geometry": {"type": "Point", "coordinates": [131.4642212431414, 7.445400828775444]}}, {"type": "Feature", "properties": {"norad_id": 66986, "name": "STARLINK-36135", "group": "last-30-days", "lat": 9.031061836569734, "lon": 133.21667658708537, "alt_km": 322.87773718597236, "timestamp": "2025-12-19T20:42:58.815475+00:00", "meta": {"OBJECT_NAME": "STARLINK-36135", "OBJECT_ID": "2025-288AD", "EPOCH": "2025-12-19T00:00:02.000160", "MEAN_MOTION": 15.85028775, "ECCENTRICITY": 0.00016235, "INCLINATION": 43.0013, "RA_OF_ASC_NODE": 128.7, "ARG_OF_PERICENTER": 278.7907, "MEAN_ANOMALY": 207.8027, "EPHEMERIS_TYPE": 0, "CLASSIFICATION_TYPE": "U", "NORAD_CAT_ID": 66986, "ELEMENT_SET_NO": 999, "REV_AT_EPOCH": 283, "BSTAR": -0.0073325349, "MEAN_MOTION_DOT": -0.01565776, "MEAN_MOTION_DDOT": 0}, "tle": {"line1": "1 66986U 25288AD  25353.00002315 -.01565776  00000+0 -73325-2 0  9999", "line2": "2 66986  43.0013 128.7000 0001623 278.7907 207.8027 15.85028775  2835"}}, "geometry": {"type": "Point", "coordinates": [133.21667658708537, 9.031061836569734]}}, {"type": "Feature", "properties": {"norad_id": 66987, "name": "STARLINK-36147", "group": "last-30-days", "lat": 10.511811161297752, "lon": 134.8764072353339, "alt_km": 322.52170484286944, "timestamp": "2025-12-19T20:42:58.815488+00:00", "meta": {"OBJECT_NAME": "STARLINK-36147", "OBJECT_ID": "2025-288AE", "EPOCH": "2025-12-19T00:00:02.000160", "MEAN_MOTION": 15.85034425, "ECCENTRICITY": 0.00014388, "INCLINATION": 43.0018, "RA_OF_ASC_NODE": 128.6949, "ARG_OF_PERICENTER": 285.1509, "MEAN_ANOMALY": 203.6547, "EPHEMERIS_TYPE": 0, "CLASSIFICATION_TYPE": "U", "NORAD_CAT_ID": 66987, "ELEMENT_SET_NO": 999, "REV_AT_EPOCH": 283, "BSTAR": -0.0073612538, "MEAN_MOTION_DOT": -0.01571375, "MEAN_MOTION_DDOT": 0}, "tle": {"line1": "1 66987U 25288AE  25353.00002315 -.01571375  00000+0 -73613-2 0  9992", "line2": "2 66987  43.0018 128.6949 0001438 285.1509 203.6547 15.85034425  2836"}}, "geometry": {"type": "Point", "coordinates": [134.8764072353339, 10.511811161297752]}}, {"type": "Feature", "properties": {"norad_id": 66988, "name": "YAOGAN-47", "group": "last-30-days", "lat": 28.88432702670077, "lon": -116.8179532169947, "alt_km": 494.9882717108994, "timestamp": "2025-12-19T20:42:58.815503+00:00", "meta": {"OBJECT_NAME": "YAOGAN-47", "OBJECT_ID": "2025-289A", "EPOCH": "2025-12-15T02:32:19.481856", "MEAN_MOTION": 15.23184629, "ECCENTRICITY": 7.87e-05, "INCLINATION": 97.5271, "RA_OF_ASC_NODE": 54.2297, "ARG_OF_PERICENTER": 67.3408, "MEAN_ANOMALY": 292.7912, "EPHEMERIS_TYPE": 0, "CLASSIFICATION_TYPE": "U", "NORAD_CAT_ID": 66988, "ELEMENT_SET_NO": 999, "REV_AT_EPOCH": 90, "BSTAR": 0.00011849353, "MEAN_MOTION_DOT": 2.729e-05, "MEAN_MOTION_DDOT": 0}, "tle": {"line1": "1 66988U 25289A   25349.10578104  .00002729  00000+0  11849-3 0  9997", "line2": "2 66988  97.5271  54.2297 0000787  67.3408 292.7912 15.23184629   901"}}, "geometry": {"type": "Point", "coordinates": [-116.8179532169947, 28.88432702670077]}}, {"type": "Feature", "properties": {"norad_id": 66989, "name": "CZ-4B R/B", "group": "last-30-days", "lat": 31.0446127526344, "lon": 55.16269069327092, "alt_km": 304.6114241869964, "timestamp": "2025-12-19T20:42:58.815515+00:00", "meta": {"OBJECT_NAME": "CZ-4B R/B", "OBJECT_ID": "2025-289B", "EPOCH": "2025-12-19T06:48:32.721984", "MEAN_MOTION": 15.68790478, "ECCENTRICITY": 0.0143976, "INCLINATION": 97.5257, "RA_OF_ASC_NODE": 59.1045, "ARG_OF_PERICENTER": 338.1503, "MEAN_ANOMALY": 21.3655, "EPHEMERIS_TYPE": 0, "CLASSIFICATION_TYPE": "U", "NORAD_CAT_ID": 66989, "ELEMENT_SET_NO": 999, "REV_AT_EPOCH": 159, "BSTAR": 0.00049495952, "MEAN_MOTION_DOT": 0.0010247, "MEAN_MOTION_DDOT": 5.256527e-06}, "tle": {"line1": "1 66989U 25289B   25353.28371206  .00102470  52565-5  49496-3 0  9998", "line2": "2 66989  97.5257  59.1045 0143976 338.1503  21.3655 15.68790478  1594"}}, "geometry": {"type": "Point", "coordinates": [55.16269069327092, 31.0446127526344]}}, {"type": "Feature", "properties": {"norad_id": 66990, "name": "TJS-22", "group": "last-30-days", "lat": -0.0065623450712736595, "lon": 105.88334224140817, "alt_km": 35800.188321864705, "timestamp": "2025-12-19T20:42:58.815528+00:00", "meta": {"OBJECT_NAME": "TJS-22", "OBJECT_ID": "2025-290A", "EPOCH": "2025-12-18T08:47:47.925024", "MEAN_MOTION": 1.00270336, "ECCENTRICITY": 0.00034462, "INCLINATION": 1.9746, "RA_OF_ASC_NODE": 285.0171, "ARG_OF_PERICENTER": 341.282, "MEAN_ANOMALY": 19.3488, "EPHEMERIS_TYPE": 0, "CLASSIFICATION_TYPE": "U", "NORAD_CAT_ID": 66990, "ELEMENT_SET_NO": 999, "REV_AT_EPOCH": 21, "BSTAR": 0, "MEAN_MOTION_DOT": 2.1e-07, "MEAN_MOTION_DDOT": 0}, "tle": {"line1": "1 66990U 25290A   25352.36652691  .00000021  00000+0  00000+0 0  9994", "line2": "2 66990   1.9746 285.0171 0003446 341.2820  19.3488  1.00270336   218"}}, "geometry": {"type": "Point", "coordinates": [105.88334224140817, -0.0065623450712736595]}}, {"type": "Feature", "properties": {"norad_id": 66991, "name": "CZ-3B R/B", "group": "last-30-days", "lat": -3.9854562592409435, "lon": -68.54898168691432, "alt_km": 31565.56790363455, "timestamp": "2025-12-19T20:42:58.815540+00:00", "meta": {"OBJECT_NAME": "CZ-3B R/B", "OBJECT_ID": "2025-290B", "EPOCH": "2025-12-15T17:23:33.043200", "MEAN_MOTION": 2.38388611, "ECCENTRICITY": 0.7240884, "INCLINATION": 28.4636, "RA_OF_ASC_NODE": 300.4666, "ARG_OF_PERICENTER": 182.7002, "MEAN_ANOMALY": 168.625, "EPHEMERIS_TYPE": 0, "CLASSIFICATION_TYPE": "U", "NORAD_CAT_ID": 66991, "ELEMENT_SET_NO": 999, "REV_AT_EPOCH": 16, "BSTAR": 0.00075879, "MEAN_MOTION_DOT": 0.00057911, "MEAN_MOTION_DDOT": -2.0514e-07}, "tle": {"line1": "1 66991U 25290B   25349.72468800  .00057911 -20514-6  75879-3 0  9998", "line2": "2 66991  28.4636 300.4666 7240884 182.7002 168.6250  2.38388611   165"}}, "geometry": {"type": "Point", "coordinates": [-68.54898168691432, -3.9854562592409435]}}, {"type": "Feature", "properties": {"norad_id": 66993, "name": "2025-292A", "group": "last-30-days", "lat": 34.309779987343056, "lon": 61.08108372149416, "alt_km": 558.9618284969056, "timestamp": "2025-12-19T20:42:58.815552+00:00", "meta": {"OBJECT_NAME": "2025-292A", "OBJECT_ID": "2025-292A", "EPOCH": "2025-12-19T06:11:49.058016", "MEAN_MOTION": 15.04540227, "ECCENTRICITY": 0.00138954, "INCLINATION": 97.6528, "RA_OF_ASC_NODE": 65.7466, "ARG_OF_PERICENTER": 248.2172, "MEAN_ANOMALY": 111.7576, "EPHEMERIS_TYPE": 0, "CLASSIFICATION_TYPE": "U", "NORAD_CAT_ID": 66993, "ELEMENT_SET_NO": 999, "REV_AT_EPOCH": 137, "BSTAR": 0.00020705591, "MEAN_MOTION_DOT": 2.845e-05, "MEAN_MOTION_DDOT": 0}, "tle": {"line1": "1 66993U 25292A   25353.25820669  .00002845  00000+0  20706-3 0  9995", "line2": "2 66993  97.6528  65.7466 0013895 248.2172 111.7576 15.04540227  1377"}}, "geometry": {"type": "Point", "coordinates": [61.08108372149416, 34.309779987343056]}}, {"type": "Feature", "properties": {"norad_id": 66994, "name": "2025-292B", "group": "last-30-days", "lat": 35.833835027296665, "lon": 60.77464258854407, "alt_km": 558.5549075287245, "timestamp": "2025-12-19T20:42:58.815562+00:00", "meta": {"OBJECT_NAME": "2025-292B", "OBJECT_ID": "2025-292B", "EPOCH": "2025-12-19T06:11:25.834560", "MEAN_MOTION": 15.04581174, "ECCENTRICITY": 0.00136595, "INCLINATION": 97.6537, "RA_OF_ASC_NODE": 65.7478, "ARG_OF_PERICENTER": 248.5509, "MEAN_ANOMALY": 111.4261, "EPHEMERIS_TYPE": 0, "CLASSIFICATION_TYPE": "U", "NORAD_CAT_ID": 66994, "ELEMENT_SET_NO": 999, "REV_AT_EPOCH": 137, "BSTAR": 0.00024454567, "MEAN_MOTION_DOT": 3.376e-05, "MEAN_MOTION_DDOT": 0}, "tle": {"line1": "1 66994U 25292B   25353.25793790  .00003376  00000+0  24455-3 0  9995", "line2": "2 66994  97.6537  65.7478 0013659 248.5509 111.4261 15.04581174  1370"}}, "geometry": {"type": "Point", "coordinates": [60.77464258854407, 35.833835027296665]}}, {"type": "Feature", "properties": {"norad_id": 66995, "name": "2025-292C", "group": "last-30-days", "lat": 36.259056141341304, "lon": 60.68664965605302, "alt_km": 558.5909673505821, "timestamp": "2025-12-19T20:42:58.815572+00:00", "meta": {"OBJECT_NAME": "2025-292C", "OBJECT_ID": "2025-292C", "EPOCH": "2025-12-19T06:11:19.847040", "MEAN_MOTION": 15.04607318, "ECCENTRICITY": 0.00139633, "INCLINATION": 97.6528, "RA_OF_ASC_NODE": 65.747, "ARG_OF_PERICENTER": 248.9447, "MEAN_ANOMALY": 111.0286, "EPHEMERIS_TYPE": 0, "CLASSIFICATION_TYPE": "U", "NORAD_CAT_ID": 66995, "ELEMENT_SET_NO": 999, "REV_AT_EPOCH": 137, "BSTAR": 0.00027218059, "MEAN_MOTION_DOT": 3.767e-05, "MEAN_MOTION_DDOT": 0}, "tle": {"line1": "1 66995U 25292C   25353.25786860  .00003767  00000+0  27218-3 0  9990", "line2": "2 66995  97.6528  65.7470 0013963 248.9447 111.0286 15.04607318  1378"}}, "geometry": {"type": "Point", "coordinates": [60.68664965605302, 36.259056141341304]}}]}